{
    "links": {
        "self": "http://www.neowsapp.com/rest/v1/neo/3405614?api_key=iIulBulltgU6a56xZRHN4H3l9WmuAYTsLGpBGhQ2"
    },
    "id": "3405614",
    "neo_reference_id": "3405614",
    "name": "(2008 EK68)",
    "designation": "2008 EK68",
    "nasa_jpl_url": "http://ssd.jpl.nasa.gov/sbdb.cgi?sstr=3405614",
    "absolute_magnitude_h": 29.587,
    "estimated_diameter": {
        "kilometers": {
            "estimated_diameter_min": 0.0032148075,
            "estimated_diameter_max": 0.0071885282
        },
        "meters": {
            "estimated_diameter_min": 3.2148075278,
            "estimated_diameter_max": 7.1885281668
        },
        "miles": {
            "estimated_diameter_min": 0.0019975882,
            "estimated_diameter_max": 0.0044667429
        },
        "feet": {
            "estimated_diameter_min": 10.5472691296,
            "estimated_diameter_max": 23.5844107508
        }
    },
    "is_potentially_hazardous_asteroid": false,
    "close_approach_data": [
        {
            "close_approach_date": "2008-03-03",
            "close_approach_date_full": "2008-Mar-03 08:21",
            "epoch_date_close_approach": 1204532460000,
            "relative_velocity": {
                "kilometers_per_second": "9.6634442541",
                "kilometers_per_hour": "34788.3993147654",
                "miles_per_hour": "21616.1584519996"
            },
            "miss_distance": {
                "astronomical": "0.0063702942",
                "lunar": "2.4780444438",
                "kilometers": "952982.443593354",
                "miles": "592155.8318181252"
            },
            "orbiting_body": "Moon"
        },
        {
            "close_approach_date": "2008-03-03",
            "close_approach_date_full": "2008-Mar-03 10:14",
            "epoch_date_close_approach": 1204539240000,
            "relative_velocity": {
                "kilometers_per_second": "8.7141820223",
                "kilometers_per_hour": "31371.0552803702",
                "miles_per_hour": "19492.7537657389"
            },
            "miss_distance": {
                "astronomical": "0.0038706755",
                "lunar": "1.5056927695",
                "kilometers": "579044.810261185",
                "miles": "359801.760866953"
            },
            "orbiting_body": "Earth"
        }
    ],
    "orbital_data": {
        "orbit_id": "16",
        "orbit_determination_date": "2017-04-06 09:04:03",
        "first_observation_date": "2008-03-05",
        "last_observation_date": "2008-03-05",
        "data_arc_in_days": null,
        "observations_used": 10,
        "orbit_uncertainty": "9",
        "minimum_orbit_intersection": ".00204617",
        "jupiter_tisserand_invariant": "4.488",
        "epoch_osculation": "2454530.5",
        "eccentricity": ".3957417536667133",
        "semi_major_axis": "1.482240911623705",
        "inclination": "3.952214036692746",
        "ascending_node_longitude": "344.235269428506",
        "orbital_period": "659.1384115900127",
        "perihelion_distance": ".8956562939011917",
        "perihelion_argument": "129.4759230014255",
        "aphelion_distance": "2.068825529346217",
        "perihelion_time": "2454490.457487093836",
        "mean_anomaly": "21.8699204791382",
        "mean_motion": ".5461675327517126",
        "equinox": "J2000",
        "orbit_class": {
            "orbit_class_type": "APO",
            "orbit_class_description": "Near-Earth asteroid orbits which cross the Earth’s orbit similar to that of 1862 Apollo",
            "orbit_class_range": "a (semi-major axis) > 1.0 AU; q (perihelion) < 1.017 AU"
        }
    },
    "is_sentry_object": false
}